CORAL                   
1 67684U 98067YA  26081.10080672  .00096553  00000+0  13311-2 0  9990
2 67684  51.6311   9.5362 0012187 219.6272 140.3830 15.56342856  6722
GXIBA-1                 
1 67685U 98067YB  26081.27305036  .00038654  00000+0  60489-3 0  9990
2 67685  51.6327   9.1857 0011628 227.8880 132.1122 15.53290377  6742
UITMSAT-2               
1 67686U 98067YC  26081.06921150  .00064299  00000+0  97068-3 0  9996
2 67686  51.6330  10.0770 0008720 197.5309 162.5382 15.54090854  6711
HMU-SAT2                
1 67687U 98067YD  26081.08387994  .00053693  00000+0  84410-3 0  9994
2 67687  51.6325  10.1754 0008335 200.1603 159.9059 15.53052965  6631
LEOPARD                 
1 67688U 98067YE  26080.10933344  .00050861  00000+0  78512-3 0  9993
2 67688  51.6330  14.9166 0008406 194.0087 166.0671 15.53580320  6486
CREW DRAGON 12          
1 67796U 26031A   26081.16296743  .00015089  00000+0  28686-3 0  9997
2 67796  51.6343  10.6992 0006186 218.8034 141.2511 15.48444672558180
